#aV2008 10  3  0  0   .00000000      96 DD+AD WGS84 FIT  NGA
## 1499 432000.00000000   900.00000000 54742  .0000000000000
+   32     1  2  3  4  5  6  7  8  9 10 11 12 13 14 15 16 17
+         18 19 20 21 22 23 24 25 26 27 28 29 30 31 32  0  0
+          0  0  0  0  0  0  0  0  0  0  0  0  0  0  0  0  0
+          0  0  0  0  0  0  0  0  0  0  0  0  0  0  0  0  0
+          0  0  0  0  0  0  0  0  0  0  0  0  0  0  0  0  0
++         0  0  0  0  0  0  0  0  0  0  0  0  0  0  0  0  0
++         0  0  0  0  0  0  0  0  0  0  0  0  0  0  0  0  0
++         0  0  0  0  0  0  0  0  0  0  0  0  0  0  0  0  0
++         0  0  0  0  0  0  0  0  0  0  0  0  0  0  0  0  0
++         0  0  0  0  0  0  0  0  0  0  0  0  0  0  0  0  0
%c cc cc ccc ccc cccc cccc cccc cccc ccccc ccccc ccccc ccccc
%c cc cc ccc ccc cccc cccc cccc cccc ccccc ccccc ccccc ccccc
%f  0.0000000  0.000000000  0.00000000000  0.000000000000000
%f  0.0000000  0.000000000  0.00000000000  0.000000000000000
%i    0    0    0    0      0      0      0      0         0
%i    0    0    0    0      0      0      0      0         0
/*      NGA, ST. LOUIS,MO.                                  
/*   EPHEMERIS COMPUTED FROM  3 DAYS OF DATA                
/* CCCCCCCCCCCCCCCCCCCCCCCCCCCCCCCCCCCCCCCCCCCCCCCCCCCCCCCCC
/* CCCCCCCCCCCCCCCCCCCCCCCCCCCCCCCCCCCCCCCCCCCCCCCCCCCCCCCCC
*  2008 10  3 11 30   .00000000                                                 
P  1   7829.072518 -15456.195823  20329.132541      1.886287                    
V  1  24782.007723  -4944.897429 -13541.327118       .026023                    
P  2  11160.029249  21466.629853  11240.149479    182.884226                    
V  2 -12345.452193  -7835.077182  26525.111978      -.027708                    
P  3  -6002.603200 -14932.595335 -21409.009741    291.743551                    
V  3  24676.698484 -10130.531366    508.473766       .053151                    
P  4  -2518.033913  17423.926021  19671.448474   -189.376462                    
V  4 -19369.808148 -16487.625021  12424.744989      -.114226                    
P  5  15112.700373   3380.445755  21289.150197   -205.106318                    
V  5  -4015.292158  27496.169222  -1368.401065      -.820792                    
P  6   -156.561650 -16242.618992 -20826.963838    162.442592                    
V  6  25751.813471  -8088.386280   6062.016427      -.033398                    
P  7 -19365.767125   -918.085403 -18226.600451     20.417761                    
V  7 -15749.311364 -16879.827235  17510.601512       .015972                    
P  8 -10794.623244   9994.227409 -22188.673344   -172.540068                    
V  8 -19334.837920 -20144.102365   -147.126445      -.014702                    
P  9  21558.217757  14644.369303   4795.023839     17.928917                    
V  9   3598.185310   6315.560215 -31177.278244       .018977                    
P 10   2675.296270  23300.306465 -12279.424382     -5.578338                    
V 10  -6411.982794  14333.605715  26415.208586      -.004648                    
P 11 -24158.291046 -10081.568557   5282.099642     18.660441                    
V 11  -3462.976170  -7537.059441 -28926.224790      -.007451                    
P 12  12690.940248   9986.053164  21178.230620   -348.247442                    
V 12  -6891.411201  25791.758554  -7966.797189       .017957                    
P 13 -25964.224687   5378.160605   1383.408010    273.026404                    
V 13   1437.698454  -2106.800922  32448.607687       .011445                    
P 14  15731.344209 -14706.241780  15580.744938   -212.157101                    
V 14  19287.400938  -3602.763832 -23149.902531       .047603                    
P 15  15539.456135   9429.250415 -19345.061842   -187.745910                    
V 15 -23127.528179   8569.889869 -14359.993322      -.064303                    
P 16   1835.259488 -25503.387513  -6712.416633    103.576406                    
V 16   4794.463340  -7686.135705  30454.790091      -.021537                    
P 17 -16313.899459  15106.097807  14439.129138     39.190316                    
V 17 -18253.682336   2824.742903 -23818.533568       .002164                    
P 18  16054.522350 -12027.894682 -17016.388477   -127.402604                    
V 18  -3697.080685  22001.711061 -19177.892539       .040083                    
P 19 -16463.131195  -9666.710286 -18481.158537     35.631220                    
V 19  22680.225134  -6498.023740 -16531.701663       .000694                    
P 20 -14545.246295  -5738.067088  21360.377309    102.934574                    
V 20   6152.036828 -26746.329751  -2943.664311      -.010617                    
P 21  17104.755034  -3719.196256 -19918.609209     48.197105                    
V 21  17538.451155  18808.605767  10814.295979      -.015273                    
P 22  11699.741129 -22697.475909  -7025.698020    210.581315                    
V 22    660.456700   9718.055743 -29666.836216      -.004466                    
P 23 -24162.303159   -935.945606  11239.922848    375.392805                    
V 23  13124.958886  -5869.032805  27324.810079       .013464                    
P 24  21269.975067   9884.297405 -12036.586634    130.184668                    
V 24   8771.080744  13263.425657  26323.122780       .030339                    
P 25 -22202.517050  -6259.860921 -12652.613877   -100.811435                    
V 25 -11701.535860 -12142.601935  25992.803222       .395301                    
P 26  10494.520572  12055.130842 -21809.348494    334.211362                    
V 26 -25541.086494   6401.430251  -8443.805286       .051877                    
P 27 -17650.173154   2214.655547 -19086.552475    222.239642                    
V 27 -18825.692558 -17448.134435  14753.398419       .030646                    
P 28 -11929.482154  21821.706372  -8435.095164    -22.918096                    
V 28    193.045337 -11702.729693 -29523.430226      -.001596                    
P 29  25871.068001  -3537.547774   4867.353589    -35.735840                    
V 29  -5102.834662   4285.227354  30956.648856       .012281                    
P 30  15818.660387  -6667.521297  19886.261638     99.944477                    
V 30  -3770.860928  25869.073907  11554.292278       .021101                    
P 31  -1135.186990 -18824.727945  18862.805694    -30.172988                    
V 31  18047.744467  15171.317642  16508.282050      -.022997                    
P 32 -10267.339052 -14065.739872  20541.993682    316.556484                    
V 32   8629.404241 -23530.050674 -11863.347696      -.000979                    
EOF
